256P/LINEAR,e,27.6244,81.3293,124.0892,4.635871,0.0987432,0.41789543,64.4863,12/24.0/2024,2000,g 14.0,2.0
# From MPEC 2023-A50
257P/Catalina,e,20.2177,207.7228,117.7564,3.767286,0.1347911,0.42891486,211.2285,12/24.0/2024,2000,g 11.5,4.0
# From MPEC 2021-U31
258P/PANSTARRS,e,6.7509,126.2348,25.5869,4.389693,0.1071650,0.20932277,176.8556,12/24.0/2024,2000,g 13.0,4.0
# From MPC106349
259P/Garradd,e,15.8985,51.3707,257.5140,2.729076,0.2186154,0.33874493,229.6549,12/24.0/2024,2000,g 15.5,4.0
# From MPEC 2022-O01
260P/McNaught,e,15.0449,349.3167,18.4902,3.623438,0.1428969,0.60891373,275.8449,12/24.0/2024,2000,g 13.5,4.0
# From MPEC 2021-J28
261P/Larson,e,6.0731,291.0518,67.3657,3.489931,0.1511746,0.42290314,304.3138,12/24.0/2024,2000,g 14.0,4.0
# From MPC 82322
262P/McNaught-Russell,e,29.2649,217.8883,171.0699,6.869216,0.0547449,0.81616390,240.5767,12/24.0/2024,2000,g 13.5,4.0
# From MPEC 2024-L77
263P/Gibbs,e,11.5264,105.5033,35.0198,3.041018,0.1858556,0.59392425,128.8438,12/24.0/2024,2000,g 18.0,4.0
# From MPC114608
264P/Larsen,e,25.2402,219.3042,341.1591,4.025400,0.1220367,0.34116642,260.9604,12/24.0/2024,2000,g 13.0,4.0
# From MPC 79870
265P/LINEAR,e,14.3457,342.9331,33.5495,4.260127,0.1120909,0.64698636,158.4930,12/24.0/2024,2000,g 14.5,4.0
# From MPEC 2021-F20
266P/Christensen,e,3.4279,4.9513,97.7539,3.528590,0.1486971,0.34086072,253.9403,12/24.0/2024,2000,g 14.7,4.0
# From MPC114608
267P/LONEOS,e,6.1419,228.5920,114.2294,3.210244,0.1713551,0.61451195,41.6663,12/24.0/2024,2000,g 19.5,4.0
# From MPC 92277
268P/Bernardi,e,15.6422,124.7127,0.0107,4.627458,0.0990126,0.47198349,0.6160,12/24.0/2024,2000,g 14.0,4.0
# From MPEC 2023-J29
269P/Jedicke,e,7.0846,241.7736,225.6939,7.059696,0.0525442,0.43333485,196.0052,12/24.0/2024,2000,g 10.0,4.0
# From MPC 88332
270P/Gehrels,e,2.9252,223.0369,209.8892,6.650396,0.0574689,0.47019668,241.5435,12/24.0/2024,2000,g  8.0,4.0
# From MPC 92277
271P/van Houten-Lemmon,e,6.8681,9.2987,36.5822,7.032146,0.0528533,0.39609072,220.2752,12/24.0/2024,2000,g 11.0,4.0
# From MPEC 2023-D41
272P/NEAT,e,18.0808,109.4399,27.8803,4.461776,0.1045785,0.45538478,93.1494,12/24.0/2024,2000,g 16.0,2.0
# From MPC 82723
273P/Pons-Gambart,e,136.4372,320.3920,20.1567,31.96181,0.0054545,0.97448829,0.0000,12/22.3741/2012,2000,g 11.5,4.0
# From MPEC 2024-GJ3
274P/Tombaugh-Tenagra,e,15.8213,81.3180,38.4782,4.378153,0.1075890,0.44016555,106.5206,12/24.0/2024,2000,g 13.0,4.0
# From MPC 81862
275P/Hermann,e,21.2555,348.6884,173.9015,5.793428,0.0706807,0.71360336,312.4239,12/24.0/2024,2000,g 17.0,4.0
# From MPEC 2024-X74
276P/Vorobjov,e,14.7986,211.3333,199.2680,5.352120,0.0796004,0.27156048,1.0538,12/24.0/2024,2000,g 11.5,4.0
# From MPEC 2021-F20
277P/LINEAR,e,16.7921,276.2612,152.4229,3.853511,0.1302924,0.50648521,189.3807,12/24.0/2024,2000,g 15.1,4.0
# From MPEC 2021-S45
278P/McNaught,e,6.6358,14.2794,238.4460,3.657175,0.1409242,0.44605008,219.2466,12/24.0/2024,2000,g 14.0,4.0
# From MPEC 2024-A43
279P/LaSagra,e,5.0513,346.1121,5.6836,3.569631,0.1461400,0.39934266,89.8890,12/24.0/2024,2000,g 14.0,4.0
# From MPEC 2024-RQ6
280P/Larsen,e,11.7749,131.3765,104.6718,4.525559,0.1023754,0.41678342,51.9600,12/24.0/2024,2000,g 12.5,4.0
# From MPEC 2023-D41
281P/MOSS,e,4.7177,87.1656,26.9046,4.885062,0.0912849,0.17386319,62.9473,12/24.0/2024,2000,g 11.0,4.0
# From MPC133426
282P/,e,5.8130,217.6100,9.1537,4.236109,0.1130455,0.18760251,130.8938,12/24.0/2024,2000,g 13.5,2.0
# From MPEC 2022-K19
283P/Spacewatch,e,14.4652,161.1213,22.1481,4.132405,0.1173275,0.48471073,141.1573,12/24.0/2024,2000,g 16.0,2.0
# From MPEC 2024-D33
284P/McNaught,e,11.8544,144.2669,202.4771,3.678402,0.1397061,0.37450974,167.5400,12/24.0/2024,2000,g 13.0,4.0
# From MPEC 2024-L77
285P/LINEAR,e,25.0352,185.5093,178.3923,4.505745,0.1030514,0.61822481,73.3721,12/24.0/2024,2000,g 15.0,4.0
# From MPEC 2024-LE0
286P/Christensen,e,17.1714,283.5805,24.3847,4.090294,0.1191440,0.42856904,114.0314,12/24.0/2024,2000,g 14.0,4.0
# From MPEC 2024-VJ2
287P/Christensen,e,16.3151,138.8935,189.8018,4.177551,0.1154307,0.27267833,61.6785,12/24.0/2024,2000,g 13.5,4.0
# From MPC133426
288P/,e,3.2383,83.1047,280.3090,3.049949,0.1850398,0.19982871,190.3440,12/24.0/2024,2000,g 16.0,2.0
# From MPEC 2024-O39
289P/Blanpain,e,5.9003,68.8916,9.8777,3.043860,0.1855953,0.68646540,339.3395,12/24.0/2024,2000,g 19.0,4.0
# From MPC 95214
290P/Jager,e,20.0478,302.6763,181.8384,6.214835,0.0636150,0.62811815,253.6816,12/24.0/2024,2000,g 10.5,4.0
# From MPEC 2024-L77
291P/NEAT,e,6.3098,237.6585,173.5448,4.534392,0.1020764,0.43401882,61.2406,12/24.0/2024,2000,g 13.0,4.0
# From MPEC 2022-K19
292P/Li,e,24.3220,90.8956,319.6498,6.096681,0.0654732,0.59000236,259.8040,12/24.0/2024,2000,g 12.5,4.0
# From MPEC 2022-L66
293P/Spacewatch,e,9.0615,78.3667,40.9611,3.638190,0.1420287,0.41939904,208.0228,12/24.0/2024,2000,g 14.5,4.0
# From MPEC 2020-SI8
294P/LINEAR,e,18.1616,311.2554,235.8939,3.194128,0.1726536,0.60029154,320.1525,12/24.0/2024,2000,g 15.5,4.0
# From MPEC 2022-K19
295P/LINEAR,e,21.0818,7.3883,73.0154,5.300359,0.0807693,0.61766437,313.5017,12/24.0/2024,2000,g 12.0,4.0
# From MPEC 2021-N06
296P/Garradd,e,25.3739,263.5285,349.9870,3.480050,0.1518189,0.48362692,235.8764,12/24.0/2024,2000,g 14.0,4.0
# From MPC102956
297P/Beshore,e,11.1715,92.2869,142.0050,3.551477,0.1472619,0.29474089,210.7358,12/24.0/2024,2000,g 15.0,4.0
# From MPC114609
298P/Christensen,e,7.8715,52.7930,100.6014,3.588611,0.1449822,0.38673108,227.6420,12/24.0/2024,2000,g 15.0,4.0
# From MPEC 2024-TD8
299P/Catalina-PANSTARRS,e,10.4690,271.5807,323.6464,4.389058,0.1071882,0.28090307,25.4961,12/24.0/2024,2000,g 11.5,4.0
# From MPEC 2023-VM5
300P/Catalina,e,5.6763,95.6200,222.8963,2.696793,0.2225526,0.69189514,138.6386,12/24.0/2024,2000,g 16.0,4.0
# From MPC 89014
301P/LINEAR-NEAT,e,10.3292,351.0653,193.4508,5.750131,0.0714805,0.58602930,271.3234,12/24.0/2024,2000,g 13.0,4.0
# From MPEC 2024-X74
302P/Lemmon-PANSTARRS,e,6.0355,121.7148,208.6341,4.268365,0.1117665,0.22953491,351.5683,12/24.0/2024,2000,g 12.5,4.0
# From MPC 92278
303P/NEAT,e,7.0162,347.9577,357.0279,5.040355,0.0870988,0.51037675,323.1657,12/24.0/2024,2000,g 13.5,4.0
# From MPEC 2022-K19
304P/Ory,e,2.6059,58.9404,335.2749,3.149915,0.1763014,0.60092588,280.8134,12/24.0/2024,2000,g 16.5,4.0
# From MPEC 2024-X74
305P/Skiff,e,11.6717,240.1054,147.4211,4.636759,0.0987148,0.69403951,3.6370,12/24.0/2024,2000,g 18.0,4.0
# From MPC 92278
306P/LINEAR,e,8.3029,341.3570,0.8974,3.124476,0.1784589,0.59261568,320.6240,12/24.0/2024,2000,g 19.0,4.0
# From MPC 92278
307P/LINEAR,e,4.4352,158.1336,222.2400,5.787755,0.0707846,0.67522178,258.1480,12/24.0/2024,2000,g 15.0,4.0
# From MPEC 2022-C56
308P/Lagerkvist-Carsenty,e,4.8529,63.0974,333.7482,6.600223,0.0581254,0.36444741,204.0351,12/24.0/2024,2000,g 13.0,2.0
# From MPEC 2024-BE0
309P/LINEAR,e,17.0213,10.1370,49.9095,4.374603,0.1077199,0.61829897,29.0875,12/24.0/2024,2000,g 15.0,4.0
# From MPEC 2024-LE0
310P/Hill,e,13.1200,8.8840,31.5299,4.181835,0.1152534,0.42223006,49.2996,12/24.0/2024,2000,g 13.5,4.0
# From MPEC 2024-A43
311P/PANSTARRS,e,4.9712,279.1700,144.2434,2.188386,0.3044515,0.11560867,108.7402,12/24.0/2024,2000,g 17.0,4.0
# From MPEC 2024-NE4
312P/NEAT,e,19.7478,144.6442,207.7098,3.471844,0.1523575,0.42684999,236.3770,12/24.0/2024,2000,g 16.0,4.0
# From MPEC 2024-N80
313P/Gibbs,e,10.9808,105.9255,254.9763,3.163681,0.1751520,0.23457998,299.8035,12/24.0/2024,2000,g 15.0,4.0
# From MPC105243
314P/Montani,e,3.9920,267.6228,213.8463,7.249725,0.0504919,0.41836581,151.2116,12/24.0/2024,2000,g  9.5,4.0
# From MPEC 2023-J29
315P/LONEOS,e,17.7331,68.6597,65.8671,4.937419,0.0898368,0.52191278,264.9885,12/24.0/2024,2000,g 11.0,4.0
# From MPEC 2024-NE4
316P/LONEOS-Christensen,e,9.8855,245.9298,187.7794,4.421062,0.1060264,0.15857840,7.9119,12/24.0/2024,2000,g 13.5,4.0
# From MPEC 2020-C98
317P/WISE,e,11.9742,275.4710,334.8692,2.959938,0.1935442,0.57192454,299.8317,12/24.0/2024,2000,g 17.5,4.0
# From MPC102103
318P/McNaught-Hartley,e,17.8697,35.5847,313.3233,7.513157,0.0478597,0.67365334,160.2808,12/24.0/2024,2000,g  8.5,6.0
# From MPC 97499
319P/Catalina-McNaught,e,15.0942,111.3456,203.6341,3.562995,0.1465485,0.66627211,146.4276,12/24.0/2024,2000,g 15.0,4.0
# From MPC 96281
320P/McNaught,e,4.9026,295.9389,0.7633,3.095615,0.1809605,0.68479872,260.2999,12/24.0/2024,2000,g 20.5,4.0
# From MPC105243
321P/SOHO,e,20.0623,165.0225,172.7443,2.422167,0.2614556,0.98101918,0.0000,10/26.5756/2023,2000,g 20.0,4.0
# From MPC102103
322P/SOHO,e,11.4571,351.4087,57.0116,2.508545,0.2480682,0.97996360,0.0000,08/21.1353/2023,2000,g 19.0,4.0
# From MPEC 2023-XP6
323P/SOHO,e,5.3269,324.2804,353.1247,2.584024,0.2372790,0.98461351,0.0000,03/14.2949/2025,2000,g 20.0,4.0
# From MPEC 2024-F21
323P-B/SOHO,e,5.4580,323.4624,353.9650,2.889483,0.2006661,0.98611012,0.0000,12/16.2707/2025,2000,g 26.0,4.0
# From MPEC 2024-F21
323P-C/SOHO,e,5.3399,324.1987,353.2062,2.610975,0.2336146,0.98476180,0.0000,04/07.1018/2025,2000,g 27.0,4.0
# From MPEC 2021-W31
324P/LaSagra,e,21.3992,270.5695,57.4877,3.096638,0.1808707,0.15291158,240.6329,12/24.0/2024,2000,g 13.0,4.0
# From MPEC 2024-LE0
325P/Yang-Gao,e,16.8494,256.8544,344.9378,3.547800,0.1474910,0.58807397,148.1507,12/24.0/2024,2000,g 14.0,4.0
# From MPEC 2024-LE0
326P/Hill,e,2.4731,99.7595,278.3691,4.070425,0.1200174,0.32047952,43.2859,12/24.0/2024,2000,g 13.5,4.0
# From MPEC 2024-M41
327P/VanNess,e,36.2376,173.9963,185.0449,3.562834,0.1465584,0.56267782,123.6812,12/24.0/2024,2000,g 16.0,4.0
# From MPEC 2024-X74
328P/LONEOS-Tucker,e,17.6723,341.5958,30.6735,4.190912,0.1148792,0.55298869,17.1212,12/24.0/2024,2000,g 14.5,4.0
# From MPC101101
329P/LINEAR-Catalina,e,21.7194,87.6880,343.5871,5.183242,0.0835222,0.67890230,276.0189,12/24.0/2024,2000,g 13.5,4.0
# From MPEC 2023-J29
330P/Catalina,e,15.7374,293.0822,188.8235,6.616043,0.0579171,0.55036469,175.9748,12/24.0/2024,2000,g 12.0,4.0
# From MPEC 2024-Q20
331P/Gibbs,e,9.7402,216.7468,185.4078,3.003417,0.1893567,0.04150812,290.9443,12/24.0/2024,2000,g 12.0,4.0
# From MPEC 2016-K18
